[{"OBJECT_NAME":"STARLINK-31677","OBJECT_ID":"2024-090V","EPOCH":"2026-03-09T09:44:39.172416","MEAN_MOTION":15.27575537,"ECCENTRICITY":8.716e-5,"INCLINATION":43.0056,"RA_OF_ASC_NODE":185.3642,"ARG_OF_PERICENTER":253.7432,"MEAN_ANOMALY":106.3324,"EPHEMERIS_TYPE":0,"CLASSIFICATION_TYPE":"U","NORAD_CAT_ID":59749,"ELEMENT_SET_NO":999,"REV_AT_EPOCH":10338,"BSTAR":-9.911148e-6,"MEAN_MOTION_DOT":-5.35e-6,"MEAN_MOTION_DDOT":0},{"OBJECT_NAME":"COSMOS 2251 DEB","OBJECT_ID":"1993-036DE","EPOCH":"2026-03-09T20:53:28.838688","MEAN_MOTION":15.29467846,"ECCENTRICITY":0.00306247,"INCLINATION":73.7716,"RA_OF_ASC_NODE":223.0836,"ARG_OF_PERICENTER":342.1726,"MEAN_ANOMALY":17.8397,"EPHEMERIS_TYPE":0,"CLASSIFICATION_TYPE":"U","NORAD_CAT_ID":33901,"ELEMENT_SET_NO":999,"REV_AT_EPOCH":90839,"BSTAR":0.0037194515,"MEAN_MOTION_DOT":0.00109321,"MEAN_MOTION_DDOT":0}]
